{
  "schema": "int-temerity-real-tle-snapshot/v1",
  "source": "celestrak",
  "group": "STARLINK",
  "format": "celestrak-gp-json",
  "source_url": "https://celestrak.org/NORAD/elements/gp.php?NAME=STARLINK&FORMAT=JSON",
  "downloaded_at": "2026-06-26T09:50:33.467Z",
  "generated_at": "2026-06-26T09:50:44.363Z",
  "fingerprint": "77a8ac15",
  "shell_id": "starlink-real-43deg-490km",
  "catalog_count": 10658,
  "shell_count": 3264,
  "selected_count": 1584,
  "mean_altitude_km": 490.2,
  "mean_inclination_deg": 43.0017,
  "mean_mean_motion_rev_per_day": 15.27576648,
  "layout": {
    "planes": 72,
    "satellites_per_plane": 22,
    "selection_strategy": "largest-shell-raan-clusters-even-slot-sampling",
    "raan_cluster_threshold_deg": 1.5
  },
  "satellites": [
    {
      "satellite_id": "P13-S01",
      "norad_id": 62428,
      "satellite_name": "STARLINK-32614",
      "cospar_id": "2024-249V",
      "shell_id": "starlink-real-43deg-490km",
      "plane_id": 12,
      "slot_id": 0,
      "epoch": "2026-06-25T18:49:07.866912",
      "inclination": 43.0007,
      "raan": 71.53739999999999,
      "eccentricity": 0.0002904,
      "argument_of_perigee": 286.76739999999995,
      "mean_anomaly": 73.28589999999997,
      "mean_motion": 15.27621094,
      "bstar": 0.0008442,
      "status": "active",
      "raw_omm": {
        "OBJECT_NAME": "STARLINK-32614",
        "OBJECT_ID": "2024-249V",
        "EPOCH": "2026-06-25T18:49:07.866912",
        "MEAN_MOTION": 15.27621094,
        "ECCENTRICITY": 0.0002904,
        "INCLINATION": 43.0007,
        "RA_OF_ASC_NODE": 71.5374,
        "ARG_OF_PERICENTER": 286.7674,
        "MEAN_ANOMALY": 73.2859,
        "EPHEMERIS_TYPE": 0,
        "CLASSIFICATION_TYPE": "U",
        "NORAD_CAT_ID": 62428,
        "ELEMENT_SET_NO": 999,
        "REV_AT_EPOCH": 8425,
        "BSTAR": 0.0008442,
        "MEAN_MOTION_DOT": 0.00023072,
        "MEAN_MOTION_DDOT": 0
      },
      "source": "celestrak",
      "source_url": "https://celestrak.org/NORAD/elements/gp.php?NAME=STARLINK&FORMAT=JSON",
      "catalog_fingerprint": "77a8ac15"
    },
    {
      "satellite_id": "P13-S02",
      "norad_id": 63582,
      "satellite_name": "STARLINK-33814",
      "cospar_id": "2025-076P",
      "shell_id": "starlink-real-43deg-490km",
      "plane_id": 12,
      "slot_id": 1,
      "epoch": "2026-06-25T18:36:04.180032",
      "inclination": 43.0029,
      "raan": 71.02539999999999,
      "eccentricity": 0.0002632,
      "argument_of_perigee": 284.15869999999995,
      "mean_anomaly": 75.8972,
      "mean_motion": 15.27627544,
      "bstar": 0.0010092,
      "status": "active",
      "raw_omm": {
        "OBJECT_NAME": "STARLINK-33814",
        "OBJECT_ID": "2025-076P",
        "EPOCH": "2026-06-25T18:36:04.180032",
        "MEAN_MOTION": 15.27627544,
        "ECCENTRICITY": 0.0002632,
        "INCLINATION": 43.0029,
        "RA_OF_ASC_NODE": 71.0254,
        "ARG_OF_PERICENTER": 284.1587,
        "MEAN_ANOMALY": 75.8972,
        "EPHEMERIS_TYPE": 0,
        "CLASSIFICATION_TYPE": "U",
        "NORAD_CAT_ID": 63582,
        "ELEMENT_SET_NO": 999,
        "REV_AT_EPOCH": 6836,
        "BSTAR": 0.0010092,
        "MEAN_MOTION_DOT": 0.00027656,
        "MEAN_MOTION_DDOT": 0
      },
      "source": "celestrak",
      "source_url": "https://celestrak.org/NORAD/elements/gp.php?NAME=STARLINK&FORMAT=JSON",
      "catalog_fingerprint": "77a8ac15"
    },
    {
      "satellite_id": "P13-S03",
      "norad_id": 63595,
      "satellite_name": "STARLINK-33831",
      "cospar_id": "2025-076AC",
      "shell_id": "starlink-real-43deg-490km",
      "plane_id": 12,
      "slot_id": 2,
      "epoch": "2026-06-25T17:18:33.324192",
      "inclination": 42.9987,
      "raan": 71.41610000000003,
      "eccentricity": 0.0002036,
      "argument_of_perigee": 282.97839999999997,
      "mean_anomaly": 77.084,
      "mean_motion": 15.27575384,
      "bstar": 0.00069299,
      "status": "active",
      "raw_omm": {
        "OBJECT_NAME": "STARLINK-33831",
        "OBJECT_ID": "2025-076AC",
        "EPOCH": "2026-06-25T17:18:33.324192",
        "MEAN_MOTION": 15.27575384,
        "ECCENTRICITY": 0.0002036,
        "INCLINATION": 42.9987,
        "RA_OF_ASC_NODE": 71.4161,
        "ARG_OF_PERICENTER": 282.9784,
        "MEAN_ANOMALY": 77.084,
        "EPHEMERIS_TYPE": 0,
        "CLASSIFICATION_TYPE": "U",
        "NORAD_CAT_ID": 63595,
        "ELEMENT_SET_NO": 999,
        "REV_AT_EPOCH": 6835,
        "BSTAR": 0.00069299,
        "MEAN_MOTION_DOT": 0.00018854,
        "MEAN_MOTION_DDOT": 0
      },
      "source": "celestrak",
      "source_url": "https://celestrak.org/NORAD/elements/gp.php?NAME=STARLINK&FORMAT=JSON",
      "catalog_fingerprint": "77a8ac15"
    },
    {
      "satellite_id": "P13-S04",
      "norad_id": 63585,
      "satellite_name": "STARLINK-33813",
      "cospar_id": "2025-076S",
      "shell_id": "starlink-real-43deg-490km",
      "plane_id": 12,
      "slot_id": 3,
      "epoch": "2026-06-25T18:17:33.643680",
      "inclination": 43.0038,
      "raan": 70.92779999999999,
      "eccentricity": 0.0001932,
      "argument_of_perigee": 264.98849999999993,
      "mean_anomaly": 95.07460000000003,
      "mean_motion": 15.27594819,
      "bstar": 0.00058189,
      "status": "active",
      "raw_omm": {
        "OBJECT_NAME": "STARLINK-33813",
        "OBJECT_ID": "2025-076S",
        "EPOCH": "2026-06-25T18:17:33.643680",
        "MEAN_MOTION": 15.27594819,
        "ECCENTRICITY": 0.0001932,
        "INCLINATION": 43.0038,
        "RA_OF_ASC_NODE": 70.9278,
        "ARG_OF_PERICENTER": 264.9885,
        "MEAN_ANOMALY": 95.0746,
        "EPHEMERIS_TYPE": 0,
        "CLASSIFICATION_TYPE": "U",
        "NORAD_CAT_ID": 63585,
        "ELEMENT_SET_NO": 999,
        "REV_AT_EPOCH": 6836,
        "BSTAR": 0.00058189,
        "MEAN_MOTION_DOT": 0.00015792,
        "MEAN_MOTION_DDOT": 0
      },
      "source": "celestrak",
      "source_url": "https://celestrak.org/NORAD/elements/gp.php?NAME=STARLINK&FORMAT=JSON",
      "catalog_fingerprint": "77a8ac15"
    },
    {
      "satellite_id": "P13-S05",
      "norad_id": 63576,
      "satellite_name": "STARLINK-33800",
      "cospar_id": "2025-076H",
      "shell_id": "starlink-real-43deg-490km",
      "plane_id": 12,
      "slot_id": 4,
      "epoch": "2026-06-25T18:43:28.295040",
      "inclination": 43.002,
      "raan": 71.06830000000002,
      "eccentricity": 0.0001728,
      "argument_of_perigee": 273.8278,
      "mean_anomaly": 86.23759999999999,
      "mean_motion": 15.27600241,
      "bstar": 0.00083523,
      "status": "active",
      "raw_omm": {
        "OBJECT_NAME": "STARLINK-33800",
        "OBJECT_ID": "2025-076H",
        "EPOCH": "2026-06-25T18:43:28.295040",
        "MEAN_MOTION": 15.27600241,
        "ECCENTRICITY": 0.0001728,
        "INCLINATION": 43.002,
        "RA_OF_ASC_NODE": 71.0683,
        "ARG_OF_PERICENTER": 273.8278,
        "MEAN_ANOMALY": 86.2376,
        "EPHEMERIS_TYPE": 0,
        "CLASSIFICATION_TYPE": "U",
        "NORAD_CAT_ID": 63576,
        "ELEMENT_SET_NO": 999,
        "REV_AT_EPOCH": 6836,
        "BSTAR": 0.00083523,
        "MEAN_MOTION_DOT": 0.00022807,
        "MEAN_MOTION_DDOT": 0
      },
      "source": "celestrak",
      "source_url": "https://celestrak.org/NORAD/elements/gp.php?NAME=STARLINK&FORMAT=JSON",
      "catalog_fingerprint": "77a8ac15"
    },
    {
      "satellite_id": "P13-S06",
      "norad_id": 63586,
      "satellite_name": "STARLINK-33834",
      "cospar_id": "2025-076T",
      "shell_id": "starlink-real-43deg-490km",
      "plane_id": 12,
      "slot_id": 5,
      "epoch": "2026-06-25T17:33:21.668256",
      "inclination": 42.9992,
      "raan": 71.5564,
      "eccentricity": 0.0001666,
      "argument_of_perigee": 265.67910000000006,
      "mean_anomaly": 94.387,
      "mean_motion": 15.27591501,
      "bstar": 0.00052302,
      "status": "active",
      "raw_omm": {
        "OBJECT_NAME": "STARLINK-33834",
        "OBJECT_ID": "2025-076T",
        "EPOCH": "2026-06-25T17:33:21.668256",
        "MEAN_MOTION": 15.27591501,
        "ECCENTRICITY": 0.0001666,
        "INCLINATION": 42.9992,
        "RA_OF_ASC_NODE": 71.5564,
        "ARG_OF_PERICENTER": 265.6791,
        "MEAN_ANOMALY": 94.387,
        "EPHEMERIS_TYPE": 0,
        "CLASSIFICATION_TYPE": "U",
        "NORAD_CAT_ID": 63586,
        "ELEMENT_SET_NO": 999,
        "REV_AT_EPOCH": 6835,
        "BSTAR": 0.00052302,
        "MEAN_MOTION_DOT": 0.00014163,
        "MEAN_MOTION_DDOT": 0
      },
      "source": "celestrak",
      "source_url": "https://celestrak.org/NORAD/elements/gp.php?NAME=STARLINK&FORMAT=JSON",
      "catalog_fingerprint": "77a8ac15"
    }
  ]
}