STARLINK-32614          
1 62428U 24249V   26176.78411884  .00023072  00000+0  84420-3 0  9990
2 62428  43.0007  71.5374 0002903 286.7674  73.2859 15.27621094 84259
STARLINK-33800          
1 63576U 25076H   26176.78018861  .00022807  00000+0  83523-3 0  9990
2 63576  43.0020  71.0683 0001728 273.8278  86.2376 15.27600241 68361
STARLINK-33814          
1 63582U 25076P   26176.77504838  .00027656  00000+0  10092-2 0  9997
2 63582  43.0029  71.0254 0002632 284.1587  75.8972 15.27627544 68365
STARLINK-33813          
1 63585U 25076S   26176.76219496  .00015792  00000+0  58189-3 0  9990
2 63585  43.0038  70.9278 0001932 264.9885  95.0746 15.27594819 68362
STARLINK-33834          
1 63586U 25076T   26176.73150079  .00014163  00000+0  52302-3 0  9991
2 63586  42.9992  71.5564 0001666 265.6791  94.3870 15.27591501 68357
STARLINK-33831          
1 63595U 25076AC  26176.72121903  .00018854  00000+0  69299-3 0  9998
2 63595  42.9987  71.4161 0002036 282.9784  77.0840 15.27575384 68355
